[{"OBJECT_NAME":"SHIYAN-20C (SY-20C)","OBJECT_ID":"2022-142A","EPOCH":"2026-03-09T23:50:52.089216","MEAN_MOTION":14.29489925,"ECCENTRICITY":0.00131159,"INCLINATION":59.9943,"RA_OF_ASC_NODE":268.1651,"ARG_OF_PERICENTER":188.0899,"MEAN_ANOMALY":171.9927,"EPHEMERIS_TYPE":0,"CLASSIFICATION_TYPE":"U","NORAD_CAT_ID":54214,"ELEMENT_SET_NO":999,"REV_AT_EPOCH":17551,"BSTAR":7.6576353e-5,"MEAN_MOTION_DOT":6.0e-7,"MEAN_MOTION_DDOT":0},{"OBJECT_NAME":"FENGYUN 1C DEB","OBJECT_ID":"1999-025YZ","EPOCH":"2026-03-09T17:47:27.511296","MEAN_MOTION":14.33637063,"ECCENTRICITY":0.00220824,"INCLINATION":99.3873,"RA_OF_ASC_NODE":162.6815,"ARG_OF_PERICENTER":82.1631,"MEAN_ANOMALY":48.7578,"EPHEMERIS_TYPE":0,"CLASSIFICATION_TYPE":"U","NORAD_CAT_ID":30288,"ELEMENT_SET_NO":999,"REV_AT_EPOCH":98815,"BSTAR":0.0019392773,"MEAN_MOTION_DOT":5.343e-5,"MEAN_MOTION_DDOT":0}]
